[{"OBJECT_NAME":"SAUDICOMSAT 3","OBJECT_ID":"2007-012J","EPOCH":"2026-03-09T21:56:33.601056","MEAN_MOTION":14.70526386,"ECCENTRICITY":0.0039477,"INCLINATION":98.305,"RA_OF_ASC_NODE":42.4048,"ARG_OF_PERICENTER":7.9063,"MEAN_ANOMALY":352.2756,"EPHEMERIS_TYPE":0,"CLASSIFICATION_TYPE":"U","NORAD_CAT_ID":31125,"ELEMENT_SET_NO":999,"REV_AT_EPOCH":1023,"BSTAR":0.00027068217,"MEAN_MOTION_DOT":1.608e-5,"MEAN_MOTION_DDOT":0},{"OBJECT_NAME":"IMECE","OBJECT_ID":"2023-054A","EPOCH":"2026-03-09T21:39:15.023808","MEAN_MOTION":14.65834495,"ECCENTRICITY":0.00107007,"INCLINATION":98.13,"RA_OF_ASC_NODE":334.7859,"ARG_OF_PERICENTER":118.749,"MEAN_ANOMALY":241.479,"EPHEMERIS_TYPE":0,"CLASSIFICATION_TYPE":"U","NORAD_CAT_ID":56178,"ELEMENT_SET_NO":999,"REV_AT_EPOCH":15586,"BSTAR":0.00010462809,"MEAN_MOTION_DOT":5.23e-6,"MEAN_MOTION_DDOT":0}]
